STARLINK-2628           
1 48359U 21038G   25362.58888315  .00004382  00000+0  31271-3 0  9990
2 48359  53.0555 320.8038 0001545  89.0915 271.0251 15.06418768256305
STARLINK-2622           
1 48360U 21038H   25363.24867787  .00005540  00000+0  39057-3 0  9993
2 48360  53.0545 317.8399 0001554  90.7888 269.3279 15.06393508256405
STARLINK-2591           
1 48361U 21038J   25363.11227837  .00018011  00000+0  12229-2 0  9994
2 48361  53.0562 318.4532 0001359  94.1122 266.0022 15.06463414256384
STARLINK-2578           
1 48362U 21038K   25362.28296598  .00004108  00000+0  29444-3 0  9992
2 48362  53.0573 322.2618 0001591  91.2342 268.8830 15.06412000256264
STARLINK-2626           
1 48363U 21038L   25363.08272409  .00997758  51638-3  16646-2 0  9995
2 48363  53.0359 216.5975 0008472 195.0068 165.0713 16.02354608257828
STARLINK-2611           
1 48364U 21038M   25363.09987487 -.00000886  00000+0 -40607-4 0  9994
2 48364  53.0553 313.6712 0001347 112.0289 248.0843 15.06391237256457
STARLINK-2608           
1 48365U 21038N   25363.26205977  .00038704  00000+0  26033-2 0  9994
2 48365  53.0537 312.7796 0001422  89.8236 270.2916 15.06395510256488
STARLINK-2643           
1 48367U 21038Q   25363.24590956 -.00003022  00000+0 -18414-3 0  9990
2 48367  53.0554 307.8536 0001374  78.1020 282.0123 15.06387396256545
STARLINK-2623           
1 48368U 21038R   25363.29017801 -.00000202  00000+0  53500-5 0  9992
2 48368  53.0542 307.9314 0001260 102.5704 257.5426 15.06387571256552
STARLINK-2621           
1 48370U 21038T   25363.10585246  .00000902  00000+0  79450-4 0  9995
2 48370  53.0533 308.4852 0001462  83.5628 276.5527 15.06398002256526
STARLINK-2589           
1 48371U 21038U   25363.16850834  .00000260  00000+0  36321-4 0  9997
2 48371  53.0533 308.1997 0001309  82.7473 277.3665 15.06393797256532
STARLINK-2609           
1 48373U 21038W   25363.22748442 -.00002555  00000+0 -15274-3 0  9991
2 48373  53.0532 307.9301 0001377 106.1973 253.9168 15.06388646256546
STARLINK-2604           
1 48374U 21038X   25363.25700397  .00006881  00000+0  48016-3 0  9996
2 48374  53.0544 308.1488 0001955  87.8262 272.2951 15.06420050256547
STARLINK-2603           
1 48375U 21038Y   25363.02107230 -.00001029  00000+0 -50228-4 0  9999
2 48375  53.0576 308.8644 0001680 105.4694 254.6480 15.06392205256513
STARLINK-2610           
1 48376U 21038Z   25363.08372320  .00003054  00000+0  22378-3 0  9992
2 48376  53.0544 308.5827 0001440  93.3577 266.7577 15.06411085256528
STARLINK-2499           
1 48377U 21038AA  25363.26071670  .00004507  00000+0  32125-3 0  9992
2 48377  53.0538 308.2888 0001239 105.8810 254.2315 15.06399725256541
STARLINK-2526           
1 48378U 21038AB  25363.07635441 -.00010047  00000+0 -65661-3 0  9993
2 48378  53.0542 308.6139 0001165  99.4280 260.6840 15.06398088256520
STARLINK-2612           
1 48379U 21038AC  25362.27649421  .00005108  00000+0  36149-3 0  9997
2 48379  53.0557 312.2039 0001440  92.7656 267.3498 15.06410141256401
STARLINK-2614           
1 48380U 21038AD  25363.08010753  .00006809  00000+0  47551-3 0  9997
2 48380  53.0551 309.1106 0001139  94.2867 265.8253 15.06405657256513
STARLINK-2630           
1 48381U 21038AE  25363.00263880  .00002469  00000+0  18461-3 0  9997
2 48381  53.0538 308.9464 0001446  93.8516 266.2639 15.06395587256513
STARLINK-2585           
1 48382U 21038AF  25363.26434226 -.00000089  00000+0  12879-4 0  9995
2 48382  53.0565 307.7715 0000934  90.4328 269.6768 15.06397437256555
STARLINK-2598           
1 48385U 21038AJ  25363.12059736  .00000340  00000+0  41723-4 0  9991
2 48385  53.0555 308.4137 0001643  86.9215 273.1962 15.06394685257757
STARLINK-2606           
1 48386U 21038AK  25363.10814918  .00010242  00000+0  70539-3 0  9999
2 48386  53.0547 303.4809 0001226  83.7934 276.3195 15.06404351256596
STARLINK-2594           
1 48388U 21038AM  25363.13395585  .00016741  00000+0  11392-2 0  9999
2 48388  53.0536 303.3578 0001362  93.0612 267.0533 15.06431577256601
STARLINK-2586           
1 48390U 21038AP  25362.98514316  .00001278  00000+0  10472-3 0  9997
2 48390  53.0555 299.0250 0001306  65.6207 294.4918 15.06383219257865
STARLINK-2607           
1 48391U 21038AQ  25363.24682822  .00011472  00000+0  78724-3 0  9997
2 48391  53.0551 297.8504 0002076  83.8283 276.2942 15.06424693257903
STARLINK-2605           
1 48392U 21038AR  25363.11045116  .00008027  00000+0  55703-3 0  9997
2 48392  53.0545 298.4618 0001359 101.8359 258.2783 15.06407465257886
STARLINK-2574           
1 48395U 21038AU  25363.21374344  .00000859  00000+0  76561-4 0  9990
2 48395  53.0564 298.6219 0002021 106.1361 253.9851 15.06395927257895
STARLINK-2575           
1 48396U 21038AV  25363.09940121  .00001789  00000+0  13896-3 0  9993
2 48396  53.0547 298.5101 0001671  95.4557 264.6623 15.06399809257881
STARLINK-2590           
1 48397U 21038AW  25363.09572004  .00006084  00000+0  42698-3 0  9990
2 48397  53.0535 298.5268 0001528  84.2239 275.8924 15.06398819257885
STARLINK-2588           
1 48398U 21038AX  25363.22472260  .00008300  00000+0  57544-3 0  9998
2 48398  53.0538 297.9476 0001697 105.4226 254.6951 15.06398338257906
STARLINK-2587           
1 48399U 21038AY  25363.08834792  .00000998  00000+0  85936-4 0  9997
2 48399  53.0554 298.5565 0002061  72.3867 287.7347 15.06390946257879
STARLINK-2576           
1 48400U 21038AZ  25363.15100246  .00006175  00000+0  43310-3 0  9990
2 48400  53.0527 298.2808 0001588  94.7771 265.3399 15.06395438256671
STARLINK-2571           
1 48401U 21038BA  25363.12151500  .00005336  00000+0  37682-3 0  9990
2 48401  53.0543 298.4180 0001522  90.4773 269.6390 15.06401962256665
STARLINK-2593           
1 48404U 21038BD  25363.20628778 -.00003100  00000+0 -18939-3 0  9991
2 48404  53.0539 298.0306 0001308 100.2318 259.8819 15.06387495256689
STARLINK-2570           
1 48405U 21038BE  25363.20260508  .00002032  00000+0  15529-3 0  9998
2 48405  53.0522 298.0471 0001969  89.9585 270.1629 15.06400417256682
STARLINK-2568           
1 48406U 21038BF  25363.13257531 -.00000713  00000+0 -28963-4 0  9996
2 48406  53.0562 298.3621 0001362  89.0216 271.0929 15.06396607256673
STARLINK-2595           
1 48407U 21038BG  25362.57930439  .02017326  37001-2  20097-2 0  9999
2 48407  53.0168 200.2795 0009231 234.0981 230.5967 16.11357751257996
STARLINK-2592           
1 48408U 21038BH  25363.25787906 -.00000070  00000+0  14222-4 0  9993
2 48408  53.0544 297.7995 0001208  83.6295 276.4832 15.06384483256680
STARLINK-2563           
1 48410U 21038BK  25363.08696436  .00001587  00000+0  12541-3 0  9998
2 48410  53.0538 253.5657 0001446 103.5156 256.5995 15.06392028257306
STARLINK-2505           
1 48411U 21038BL  25362.97131682  .00000304  00000+0  39291-4 0  9991
2 48411  53.0557 249.0846 0001617  92.3878 267.7296 15.06396177257356
STARLINK-2581           
1 48412U 21038BM  25363.12249459 -.00002405  00000+0 -14268-3 0  9994
2 48412  53.0539 248.8416 0001522  80.7825 279.3336 15.06386903257377
YAOGAN-30 09A           
1 48423U 21039A   25363.28778434  .00005717  00000+0  43346-3 0  9990
2 48423  34.9989 346.3402 0003653 350.3501   9.7137 15.01641634253986
YAOGAN-30 09B           
1 48424U 21039B   25363.26511293  .00005877  00000+0  44555-3 0  9997
2 48424  34.9972 345.9329 0004290 148.0073 212.0896 15.01634622253975
YAOGAN-30 09C           
1 48425U 21039C   25363.31056080  .00005694  00000+0  43171-3 0  9992
2 48425  34.9969 345.3439 0001587  25.0587 335.0198 15.01646117253993
TIANQI-12               
1 48426U 21039D   25363.24523595  .00011609  00000+0  70566-3 0  9996
2 48426  35.0006 294.9559 0005598 247.8672 112.1445 15.09699746254506
STARLINK-2461           
1 48428U 21040A   25362.66584348  .00002272  00000+0  17141-3 0  9994
2 48428  53.0557 145.4549 0001464  94.0867 266.0290 15.06389786255857
STARLINK-2700           
1 48431U 21040D   25362.74735389  .00000784  00000+0  71521-4 0  9999
2 48431  53.0552 110.0979 0001030  22.2322 337.8712 15.06394534256358
STARLINK-2680           
1 48432U 21040E   25362.46314355  .00003204  00000+0  23381-3 0  9995
2 48432  53.0572 106.7591 0001255  82.5476 277.5655 15.06410109256376
STARLINK-2699           
1 48433U 21040F   25362.74096194  .00004951  00000+0  35087-3 0  9991
2 48433  53.0553 110.3980 0001295  86.4957 273.6180 15.06417821256345
STARLINK-2692           
1 48434U 21040G   25363.30264596  .00000964  00000+0  83632-4 0  9998
2 48434  53.0565 113.1080 0001240  91.2947 268.8184 15.06393545256362
STARLINK-2633           
1 48435U 21040H   25362.71193552  .00013752  00000+0  94065-3 0  9996
2 48435  53.0545 125.2604 0001289  99.2652 260.8483 15.06387629256136
STARLINK-2639           
1 48436U 21040J   25362.63496264  .00000890  00000+0  78644-4 0  9999
2 48436  53.0569 140.5959 0001230  86.3888 273.7241 15.06408051255913
STARLINK-2642           
1 48437U 21040K   25362.75198885  .00004283  00000+0  30613-3 0  9994
2 48437  53.0550 150.0692 0001219  80.7028 279.4099 15.06410446255796
STARLINK-2640           
1 48438U 21040L   25362.59076221  .00001425  00000+0  11454-3 0  9993
2 48438  53.0583 141.0627 0001120  91.1404 268.9714 15.06404069255900
STARLINK-2583           
1 48439U 21040M   25362.69394053  .00000255  00000+0  35983-4 0  9995
2 48439  53.0557 140.3331 0001078 100.9975 259.1136 15.06402180255924
STARLINK-2682           
1 48440U 21040N   25362.69024892  .00002332  00000+0  17545-3 0  9999
2 48440  53.0559 140.3449 0001630  94.1561 265.9615 15.06391534255924
STARLINK-2702           
1 48441U 21040P   25362.75291624  .00005480  00000+0  38647-3 0  9999
2 48441  53.0554 140.0633 0001474  98.6420 261.4736 15.06401918255935
STARLINK-2644           
1 48442U 21040Q   25362.74922528  .00005631  00000+0  39649-3 0  9994
2 48442  53.0542 140.0819 0001457  82.1519 277.9636 15.06411964255930
